OBJECT_NAME,OBJECT_ID,EPOCH,MEAN_MOTION,ECCENTRICITY,INCLINATION,RA_OF_ASC_NODE,ARG_OF_PERICENTER,MEAN_ANOMALY,EPHEMERIS_TYPE,CLASSIFICATION_TYPE,NORAD_CAT_ID,ELEMENT_SET_NO,REV_AT_EPOCH,BSTAR,MEAN_MOTION_DOT,MEAN_MOTION_DDOT
ONEWEB-0313,2021-075AA,2026-07-13T23:56:05.883648,13.17650385,.000185,87.9141,0.5441,89.4254,270.7089,0,U,49099,999,23712,.14647E-4,.19E-6,0
ONEWEB-0314,2021-075AB,2026-07-13T23:07:41.738592,13.17650897,.0002086,87.9151,0.5266,82.7369,277.3999,0,U,49100,999,23709,-.32182E-4,0,0
ONEWEB-0315,2021-075AC,2026-07-13T23:13:33.828096,13.12441570,.0001602,87.8968,345.3201,85.1955,274.9356,0,U,49101,999,23868,-.15529E-3,-.43E-6,0
ONEWEB-0316,2021-075AD,2026-07-13T18:59:54.519072,13.18685700,.0001969,87.9189,330.1648,98.7999,261.3356,0,U,49102,999,24071,-.76244E-5,.1E-6,0
ONEWEB-0317,2021-075AE,2026-07-13T21:28:39.631296,13.12441660,.0002413,87.8964,345.3582,108.5606,251.5785,0,U,49103,999,23869,-.46997E-3,-.156E-5,0
ONEWEB-0318,2021-075AF,2026-07-13T22:33:22.774752,13.18686395,.00018,87.9194,330.1374,93.4610,266.6728,0,U,49104,999,24069,-.43103E-4,-.4E-7,0
ONEWEB-0319,2021-075AG,2026-07-13T23:29:34.128672,13.17647230,.0001557,87.9144,0.5375,78.2143,281.9163,0,U,49105,999,23713,.92767E-4,.49E-6,0
ONEWEB-0323,2021-075AH,2026-07-13T22:51:37.044576,13.12442015,.0001691,87.8971,345.3282,77.1294,283.0024,0,U,49106,999,23806,.89961E-3,.336E-5,0
ONEWEB-0329,2021-075AJ,2026-07-13T23:41:42.484128,13.17650399,.0001927,87.9146,0.5368,88.0861,272.0491,0,U,49107,999,23711,.15572E-4,.19E-6,0
ONEWEB-0330,2021-075AK,2026-07-13T23:46:45.316992,13.17646907,.0002021,87.9145,0.5472,89.9717,270.1646,0,U,49108,999,23715,-.97909E-4,-.25E-6,0
ONEWEB-0292,2021-083A,2026-07-13T19:51:54.150912,13.13470025,.0001817,87.8974,314.9362,97.1012,263.0323,0,U,49186,999,23442,-.83363E-3,-.292E-5,0
ONEWEB-0303,2021-083B,2026-07-13T22:28:30.269280,13.18684369,.0001806,87.9193,330.1364,93.6561,266.4778,0,U,49187,999,23350,.12915E-4,.18E-6,0
ONEWEB-0306,2021-083C,2026-07-13T22:13:57.122976,13.18684541,.0002107,87.9198,330.1277,102.1204,258.0164,0,U,49188,999,23354,-.2298E-3,-.78E-6,0
ONEWEB-0307,2021-083D,2026-07-13T19:43:21.449856,13.13468407,.0001921,87.8976,314.9350,96.7028,263.4320,0,U,49189,999,23442,-.82209E-3,-.287E-5,0
ONEWEB-0320,2021-083E,2026-07-13T20:53:48.627744,13.18687167,.0001924,87.9186,330.1542,99.0214,261.1135,0,U,49190,999,23349,.66675E-4,.39E-6,0
ONEWEB-0321,2021-083F,2026-07-14T04:05:27.763008,13.20772283,.0002083,87.9188,269.0578,103.7144,256.4221,0,U,49191,999,24039,.24887E-3,.114E-5,0
ONEWEB-0322,2021-083G,2026-07-13T21:26:58.930368,13.13469987,.0002015,87.8977,314.9201,113.4827,246.6514,0,U,49192,999,23442,-.75103E-3,-.262E-5,0
ONEWEB-0324,2021-083H,2026-07-13T22:04:14.824128,13.18686636,.0002058,87.9199,330.1346,95.0008,265.1359,0,U,49193,999,23352,-.3703E-4,-.2E-7,0
ONEWEB-0325,2021-083J,2026-07-13T20:19:49.713024,13.18687453,.0001835,87.9188,330.1545,100.1467,259.9872,0,U,49194,999,23352,-.99934E-4,-.26E-6,0
ONEWEB-0326,2021-083K,2026-07-13T22:31:10.068672,13.18686278,.0001677,87.9195,330.1366,92.5575,267.5749,0,U,49195,999,23352,-.49643E-4,-.7E-7,0
ONEWEB-0327,2021-083L,2026-07-13T20:41:30.097824,13.18686424,.0001493,87.9185,330.1535,92.4193,267.7110,0,U,49196,999,23353,.1089E-3,.56E-6,0
ONEWEB-0328,2021-083M,2026-07-13T21:12:21.436416,13.13468941,.0002043,87.8986,314.8983,98.0137,262.1224,0,U,49197,999,23440,-.31697E-3,-.103E-5,0
ONEWEB-0331,2021-083N,2026-07-13T22:21:14.059008,13.18684542,.0001735,87.9197,330.1319,87.3292,272.8039,0,U,49198,999,23353,-.49106E-4,-.6E-7,0
ONEWEB-0333,2021-083P,2026-07-13T21:05:02.673888,13.13469145,.000187,87.8977,314.9229,100.6211,259.5128,0,U,49199,999,23441,.21445E-3,.91E-6,0
ONEWEB-0334,2021-083Q,2026-07-14T04:26:02.806080,13.20769922,.0002327,87.9184,269.0662,114.4606,245.6770,0,U,49200,999,24035,.68213E-4,.41E-6,0
ONEWEB-0335,2021-083R,2026-07-13T19:08:01.843584,13.13467133,.000179,87.8975,314.9361,94.7564,265.3770,0,U,49201,999,23441,.11748E-2,.442E-5,0
ONEWEB-0336,2021-083S,2026-07-13T20:16:16.966848,13.13469254,.0001858,87.8974,314.9219,90.6714,269.4628,0,U,49202,999,23441,.88167E-4,.45E-6,0
ONEWEB-0337,2021-083T,2026-07-13T20:30:43.691040,13.13469502,.0002057,87.8974,314.9256,95.1449,264.9915,0,U,49203,999,23441,.70572E-3,.27E-5,0
ONEWEB-0338,2021-083U,2026-07-14T03:53:19.523328,13.20771425,.0002075,87.9192,269.0705,107.3787,252.7573,0,U,49204,999,24037,.26364E-3,.12E-5,0
ONEWEB-0339,2021-083V,2026-07-13T18:53:24.619200,13.13468979,.0002105,87.8977,314.9323,106.6423,253.4938,0,U,49205,999,23438,.83029E-3,.316E-5,0
ONEWEB-0340,2021-083W,2026-07-13T20:12:33.012864,13.18687153,.0001861,87.9199,330.1553,92.9027,267.2318,0,U,49206,999,23348,-.17659E-3,-.57E-6,0
