ONEWEB-0313             
1 49099U 21075AA  26194.99729032  .00000019  00000+0  14647-4 0  9994
2 49099  87.9141   0.5441 0001850  89.4254 270.7089 13.17650385237120
ONEWEB-0314             
1 49100U 21075AB  26194.96367753  .00000000  00000+0 -32182-4 0  9997
2 49100  87.9151   0.5266 0002086  82.7369 277.3999 13.17650897237091
ONEWEB-0315             
1 49101U 21075AC  26194.96775264 -.00000043  00000+0 -15529-3 0  9991
2 49101  87.8968 345.3201 0001602  85.1955 274.9356 13.12441570238684
ONEWEB-0316             
1 49102U 21075AD  26194.79160323  .00000010  00000+0 -76244-5 0  9993
2 49102  87.9189 330.1648 0001969  98.7999 261.3356 13.18685700240710
ONEWEB-0317             
1 49103U 21075AE  26194.89490314 -.00000156  00000+0 -46997-3 0  9993
2 49103  87.8964 345.3582 0002413 108.5606 251.5785 13.12441660238696
ONEWEB-0318             
1 49104U 21075AF  26194.93984693 -.00000004  00000+0 -43103-4 0  9996
2 49104  87.9194 330.1374 0001800  93.4610 266.6728 13.18686395240699
ONEWEB-0319             
1 49105U 21075AG  26194.97886723  .00000049  00000+0  92767-4 0  9993
2 49105  87.9144   0.5375 0001557  78.2143 281.9163 13.17647230237137
ONEWEB-0323             
1 49106U 21075AH  26194.95251209  .00000336  00000+0  89961-3 0  9997
2 49106  87.8971 345.3282 0001691  77.1294 283.0024 13.12442015238067
ONEWEB-0329             
1 49107U 21075AJ  26194.98729727  .00000019  00000+0  15572-4 0  9992
2 49107  87.9146   0.5368 0001927  88.0861 272.0491 13.17650399237113
ONEWEB-0330             
1 49108U 21075AK  26194.99080228 -.00000025  00000+0 -97909-4 0  9993
2 49108  87.9145   0.5472 0002021  89.9717 270.1646 13.17646907237150
ONEWEB-0292             
1 49186U 21083A   26194.82771008 -.00000292  00000+0 -83363-3 0  9997
2 49186  87.8974 314.9362 0001817  97.1012 263.0323 13.13470025234428
ONEWEB-0303             
1 49187U 21083B   26194.93646145  .00000018  00000+0  12915-4 0  9993
2 49187  87.9193 330.1364 0001806  93.6561 266.4778 13.18684369233505
ONEWEB-0306             
1 49188U 21083C   26194.92635559 -.00000078  00000+0 -22980-3 0  9990
2 49188  87.9198 330.1277 0002107 102.1204 258.0164 13.18684541233541
ONEWEB-0307             
1 49189U 21083D   26194.82177604 -.00000287  00000+0 -82209-3 0  9994
2 49189  87.8976 314.9350 0001921  96.7028 263.4320 13.13468407234420
ONEWEB-0320             
1 49190U 21083E   26194.87070171  .00000039  00000+0  66675-4 0  9995
2 49190  87.9186 330.1542 0001924  99.0214 261.1135 13.18687167233491
ONEWEB-0321             
1 49191U 21083F   26195.17046022  .00000114  00000+0  24887-3 0  9990
2 49191  87.9188 269.0578 0002083 103.7144 256.4221 13.20772283240392
ONEWEB-0322             
1 49192U 21083G   26194.89373762 -.00000262  00000+0 -75103-3 0  9996
2 49192  87.8977 314.9201 0002015 113.4827 246.6514 13.13469987234421
ONEWEB-0324             
1 49193U 21083H   26194.91961602 -.00000002  00000+0 -37030-4 0  9996
2 49193  87.9199 330.1346 0002058  95.0008 265.1359 13.18686636233522
ONEWEB-0325             
1 49194U 21083J   26194.84710316 -.00000026  00000+0 -99934-4 0  9990
2 49194  87.9188 330.1545 0001835 100.1467 259.9872 13.18687453233520
ONEWEB-0326             
1 49195U 21083K   26194.93831098 -.00000007  00000+0 -49643-4 0  9993
2 49195  87.9195 330.1366 0001677  92.5575 267.5749 13.18686278233520
ONEWEB-0327             
1 49196U 21083L   26194.86215391  .00000056  00000+0  10890-3 0  9991
2 49196  87.9185 330.1535 0001493  92.4193 267.7110 13.18686424233537
ONEWEB-0328             
1 49197U 21083M   26194.88358144 -.00000103  00000+0 -31697-3 0  9991
2 49197  87.8986 314.8983 0002043  98.0137 262.1224 13.13468941234403
ONEWEB-0331             
1 49198U 21083N   26194.93141272 -.00000006  00000+0 -49106-4 0  9997
2 49198  87.9197 330.1319 0001735  87.3292 272.8039 13.18684542233530
ONEWEB-0333             
1 49199U 21083P   26194.87850317  .00000091  00000+0  21445-3 0  9995
2 49199  87.8977 314.9229 0001870 100.6211 259.5128 13.13469145234410
ONEWEB-0334             
1 49200U 21083Q   26195.18475470  .00000041  00000+0  68213-4 0  9996
2 49200  87.9184 269.0662 0002327 114.4606 245.6770 13.20769922240357
ONEWEB-0335             
1 49201U 21083R   26194.79724356  .00000442  00000+0  11748-2 0  9997
2 49201  87.8975 314.9361 0001790  94.7564 265.3770 13.13467133234417
ONEWEB-0336             
1 49202U 21083S   26194.84464082  .00000045  00000+0  88167-4 0  9991
2 49202  87.8974 314.9219 0001858  90.6714 269.4628 13.13469254234419
ONEWEB-0337             
1 49203U 21083T   26194.85467235  .00000270  00000+0  70572-3 0  9996
2 49203  87.8974 314.9256 0002057  95.1449 264.9915 13.13469502234413
ONEWEB-0338             
1 49204U 21083U   26195.16203152  .00000120  00000+0  26364-3 0  9992
2 49204  87.9192 269.0705 0002075 107.3787 252.7573 13.20771425240372
ONEWEB-0339             
1 49205U 21083V   26194.78709050  .00000316  00000+0  83029-3 0  9996
2 49205  87.8977 314.9323 0002105 106.6423 253.4938 13.13468979234388
ONEWEB-0340             
1 49206U 21083W   26194.84204876 -.00000057  00000+0 -17659-3 0  9990
2 49206  87.9199 330.1553 0001861  92.9027 267.2318 13.18687153233483
